STARLINK-2707           
1 48669U 21044AH  26068.79677114 -.00000117  00000+0  81732-5 0  9993
2 48669  53.1615 103.6099 0001260  94.7454 265.3690 15.30195068263972
EOSSAT-1                
1 55053U 23001AW  26068.73619225  .00007695  00000+0  24844-3 0  9992
2 55053  97.3357 130.2294 0011263 110.3168 249.9285 15.32339828176689
